{
    "links": {
        "self": "http://www.neowsapp.com/rest/v1/neo/3765644?api_key=iIulBulltgU6a56xZRHN4H3l9WmuAYTsLGpBGhQ2"
    },
    "id": "3765644",
    "neo_reference_id": "3765644",
    "name": "(2016 XL2)",
    "designation": "2016 XL2",
    "nasa_jpl_url": "http://ssd.jpl.nasa.gov/sbdb.cgi?sstr=3765644",
    "absolute_magnitude_h": 23.9,
    "estimated_diameter": {
        "kilometers": {
            "estimated_diameter_min": 0.04411182,
            "estimated_diameter_max": 0.0986370281
        },
        "meters": {
            "estimated_diameter_min": 44.1118199997,
            "estimated_diameter_max": 98.6370281305
        },
        "miles": {
            "estimated_diameter_min": 0.0274098057,
            "estimated_diameter_max": 0.0612901888
        },
        "feet": {
            "estimated_diameter_min": 144.7238235278,
            "estimated_diameter_max": 323.6123073718
        }
    },
    "is_potentially_hazardous_asteroid": false,
    "close_approach_data": [
        {
            "close_approach_date": "2016-12-14",
            "close_approach_date_full": "2016-Dec-14 08:48",
            "epoch_date_close_approach": 1481705280000,
            "relative_velocity": {
                "kilometers_per_second": "10.1361802528",
                "kilometers_per_hour": "36490.2489100872",
                "miles_per_hour": "22673.6216074928"
            },
            "miss_distance": {
                "astronomical": "0.0734432975",
                "lunar": "28.5694427275",
                "kilometers": "10986960.871776325",
                "miles": "6826980.914410285"
            },
            "orbiting_body": "Earth"
        }
    ],
    "orbital_data": {
        "orbit_id": "8",
        "orbit_determination_date": "2018-02-10 07:08:35",
        "first_observation_date": "2016-12-01",
        "last_observation_date": "2016-12-18",
        "data_arc_in_days": 17,
        "observations_used": 55,
        "orbit_uncertainty": "8",
        "minimum_orbit_intersection": ".0567751",
        "jupiter_tisserand_invariant": "4.704",
        "epoch_osculation": "2457729.5",
        "eccentricity": ".2554861939627496",
        "semi_major_axis": "1.387572358716796",
        "inclination": "17.23771142435072",
        "ascending_node_longitude": "262.9182091860661",
        "orbital_period": "597.0103862222103",
        "perihelion_distance": "1.033066777940327",
        "perihelion_argument": "196.5547907312454",
        "aphelion_distance": "1.742077939493266",
        "perihelion_time": "2457750.375899434197",
        "mean_anomaly": "347.4117369316357",
        "mean_motion": ".6030045846907698",
        "equinox": "J2000",
        "orbit_class": {
            "orbit_class_type": "AMO",
            "orbit_class_description": "Near-Earth asteroid orbits similar to that of 1221 Amor",
            "orbit_class_range": "1.017 AU < q (perihelion) < 1.3 AU"
        }
    },
    "is_sentry_object": false
}